[{"OBJECT_NAME":"ONEWEB-0282","OBJECT_ID":"2021-060AK","EPOCH":"2026-03-09T22:05:22.600608","MEAN_MOTION":13.16593695,"ECCENTRICITY":0.00017526,"INCLINATION":87.9004,"RA_OF_ASC_NODE":248.5252,"ARG_OF_PERICENTER":99.7855,"MEAN_ANOMALY":260.3474,"EPHEMERIS_TYPE":0,"CLASSIFICATION_TYPE":"U","NORAD_CAT_ID":49000,"ELEMENT_SET_NO":999,"REV_AT_EPOCH":22654,"BSTAR":-8.5110765e-5,"MEAN_MOTION_DOT":-2.0e-7,"MEAN_MOTION_DDOT":0},{"OBJECT_NAME":"SL-12 R\/B(AUX MOTOR)","OBJECT_ID":"2007-052F","EPOCH":"2026-03-09T01:24:32.272704","MEAN_MOTION":4.21921116,"ECCENTRICITY":0.56356246,"INCLINATION":65.3093,"RA_OF_ASC_NODE":359.1007,"ARG_OF_PERICENTER":223.9994,"MEAN_ANOMALY":74.1545,"EPHEMERIS_TYPE":0,"CLASSIFICATION_TYPE":"U","NORAD_CAT_ID":32280,"ELEMENT_SET_NO":999,"REV_AT_EPOCH":18879,"BSTAR":-0.00017601086,"MEAN_MOTION_DOT":-7.2e-7,"MEAN_MOTION_DDOT":0}]
